{
"type": "FeatureCollection",
"name": "Buffer",
"crs": { "type": "name", "properties": { "name": "urn:ogc:def:crs:OGC:1.3:CRS84" } },
"features": [
{ "type": "Feature", "properties": { "NAME": "Untitled Path", "LAYER": "Unknown Line Type", "KML_FOLDER": "ADD_LINE FLYOVER" }, "geometry": { "type": "MultiPolygon", "coordinates": [ [ [ [ 76.714672051955603, 30.191939885564111 ], [ 76.713791223683032, 30.190990185911179 ], [ 76.71332058251339, 30.190727641917562 ], [ 76.713263963379305, 30.190669818822386 ], [ 76.712514182708347, 30.190277797239872 ], [ 76.712448218178309, 30.1902409993729 ], [ 76.711226176228095, 30.189307426812082 ], [ 76.710004258702639, 30.1888776531075 ], [ 76.70887306790199, 30.18824662596942 ], [ 76.708757411962154, 30.188223820556512 ], [ 76.708741049471243, 30.188214746344975 ], [ 76.708466038658187, 30.188161231825148 ], [ 76.708273308149629, 30.188060462997822 ], [ 76.707131719112326, 30.187867321431618 ], [ 76.705913561646284, 30.187438870217818 ], [ 76.705823753377672, 30.187422423235322 ], [ 76.705406431949925, 30.187351059304 ], [ 76.705265732329195, 30.187328698795302 ], [ 76.704215066146318, 30.187328146092767 ], [ 76.703347817151169, 30.187157139126288 ], [ 76.703321962214005, 30.187160242890172 ], [ 76.703213095684177, 30.187139058486533 ], [ 76.703067203066823, 30.187156941840474 ], [ 76.702800427379643, 30.187109202912069 ], [ 76.701224721033455, 30.18732657302289 ], [ 76.699634092366964, 30.187325736273305 ], [ 76.698452330527999, 30.187709026792195 ], [ 76.697221620071929, 30.187878804408989 ], [ 76.695790205341922, 30.188572455708456 ], [ 76.694277169013816, 30.189063191201988 ], [ 76.693271690000259, 30.189792906639159 ], [ 76.6921536789702, 30.19033468519401 ], [ 76.691006672703409, 30.191436718259979 ], [ 76.689719335251425, 30.192370989387367 ], [ 76.688988562354695, 30.193375700111645 ], [ 76.68809268945995, 30.194236446544775 ], [ 76.687342368621472, 30.195638986702363 ], [ 76.686406743604763, 30.196925340496275 ], [ 76.686022209967632, 30.198106698421725 ], [ 76.685436169488995, 30.199202156875096 ], [ 76.685360531032217, 30.199416937117423 ], [ 76.685065828948311, 30.200332890680691 ], [ 76.684991828948313, 30.200585890680692 ], [ 76.684790045830397, 30.201335383143771 ], [ 76.684741045830393, 30.20153438314377 ], [ 76.684542172009458, 30.202442451120532 ], [ 76.684508172009458, 30.202619451120533 ], [ 76.684425958595114, 30.20307962125446 ], [ 76.684405958595107, 30.20320062125446 ], [ 76.684310778153574, 30.20384978866711 ], [ 76.684289778153584, 30.204013788667108 ], [ 76.684209760317231, 30.204762779456022 ], [ 76.684197760317232, 30.204902779456024 ], [ 76.684132322699213, 30.206332217499934 ], [ 76.684131322699201, 30.206499217499935 ], [ 76.68413170479063, 30.206766285800178 ], [ 76.684132704790642, 30.206879285800177 ], [ 76.684139689744768, 30.207246090941815 ], [ 76.684144689744755, 30.207417090941814 ], [ 76.684194324986407, 30.208326414001814 ], [ 76.684208324986415, 30.208501414001816 ], [ 76.684258447807707, 30.209029816703751 ], [ 76.684276447807704, 30.209193816703749 ], [ 76.684383263164122, 30.209999036873207 ], [ 76.684409263164127, 30.210166036873208 ], [ 76.68464981826655, 30.211417770814187 ], [ 76.684671818266551, 30.211513770814186 ], [ 76.684855036565978, 30.212242971127875 ], [ 76.684884036565975, 30.212348971127874 ], [ 76.685017127263336, 30.212811095953064 ], [ 76.68505312726333, 30.212930095953066 ], [ 76.685126293906848, 30.213166095855001 ], [ 76.685173293906857, 30.213314095855001 ], [ 76.685447919461538, 30.214113329017557 ], [ 76.685494919461533, 30.214240329017557 ], [ 76.68578656324712, 30.214978026000122 ], [ 76.685834563247113, 30.215092026000121 ], [ 76.68591178980067, 30.215272676125331 ], [ 76.685980789800681, 30.215431676125331 ], [ 76.686346782024458, 30.216222107407912 ], [ 76.686414782024457, 30.216360107407915 ], [ 76.686880260234346, 30.217242235140663 ], [ 76.686942260234346, 30.217352235140662 ], [ 76.687348445853033, 30.218037024499139 ], [ 76.687449445853034, 30.218199024499139 ], [ 76.687670344130197, 30.218544507736905 ], [ 76.687788344130198, 30.218724507736905 ], [ 76.688049038864321, 30.219094906370742 ], [ 76.688022648150422, 30.219432906903624 ], [ 76.688008648150429, 30.219689906903625 ], [ 76.687989177548886, 30.221177271819368 ], [ 76.687994177548873, 30.221354271819369 ], [ 76.688053229958982, 30.222388689896224 ], [ 76.688069229958984, 30.222574689896224 ], [ 76.688104236742419, 30.222938377152907 ], [ 76.68812223674243, 30.223107377152907 ], [ 76.6882019091139, 30.223746584410833 ], [ 76.688223909113887, 30.223900584410831 ], [ 76.688262483803967, 30.224157363966828 ], [ 76.68829148380398, 30.224341363966829 ], [ 76.688351220297704, 30.224697158758307 ], [ 76.688387220297699, 30.224899158758308 ], [ 76.688435461208201, 30.22515880231321 ], [ 76.688475779553741, 30.225367277660936 ], [ 76.688519099310639, 30.225591752764814 ], [ 76.68855350690508, 30.225769523601887 ], [ 76.689264707791921, 30.227728309901881 ], [ 76.689812492492536, 30.229738927317932 ], [ 76.690221092491299, 30.230362380361225 ], [ 76.69047549101991, 30.231063043650309 ], [ 76.691757181512827, 30.232706186964563 ], [ 76.692899470672586, 30.234449122978059 ], [ 76.693480729949528, 30.234915797713953 ], [ 76.693939194191572, 30.235503554632103 ], [ 76.695665913495034, 30.236670212644487 ], [ 76.69729089189218, 30.237974856534755 ], [ 76.697987912739421, 30.238239071588609 ], [ 76.698605565020571, 30.238656388393505 ], [ 76.700608289818391, 30.23923236048919 ], [ 76.702556893245529, 30.239971004622255 ], [ 76.703301446406087, 30.240006896783694 ], [ 76.704017826617644, 30.240212923598865 ], [ 76.70448649145672, 30.240196925415823 ], [ 76.704595718295323, 30.240226062202151 ], [ 76.706136762259362, 30.240143576902351 ], [ 76.708182001829783, 30.240242170357771 ], [ 76.708257134008122, 30.240234027207642 ], [ 76.708301488409703, 30.240229160306008 ], [ 76.708349533812708, 30.240223828124005 ], [ 76.708489450448027, 30.240207745511526 ], [ 76.708582679983977, 30.240196659595405 ], [ 76.709059117921186, 30.240062010127037 ], [ 76.709517155963127, 30.24005206299034 ], [ 76.709532899326277, 30.240046566984478 ], [ 76.709570711886698, 30.240045734045914 ], [ 76.70964163133948, 30.240020951319707 ], [ 76.709646189108241, 30.240020795737266 ], [ 76.709751600343424, 30.239982522769999 ], [ 76.709861197105496, 30.239944224299812 ], [ 76.710219309033818, 30.239925056144681 ], [ 76.712081615371957, 30.239207800915068 ], [ 76.714002049022866, 30.238665053686226 ], [ 76.714527358593628, 30.238313639205412 ], [ 76.714887095927836, 30.238187929382349 ], [ 76.715048546311152, 30.238065106671666 ], [ 76.715474645663477, 30.237900997264678 ], [ 76.717024160186455, 30.236643362697482 ], [ 76.718682883006892, 30.235533732774098 ], [ 76.719141340661736, 30.234951530314312 ], [ 76.719369184400009, 30.234778199133729 ], [ 76.719429662494065, 30.234690981607368 ], [ 76.719847299218898, 30.23435201454776 ], [ 76.7209323446491, 30.232677106676867 ], [ 76.722166989292404, 30.231109212367098 ], [ 76.722454352183277, 30.230328973233917 ], [ 76.722578239255014, 30.230150311453777 ], [ 76.72258601683059, 30.230124449916566 ], [ 76.722909243904013, 30.229625507149478 ], [ 76.723423608434771, 30.227697277627065 ], [ 76.724113319280988, 30.225824595350105 ], [ 76.724145633055926, 30.22499058012524 ], [ 76.724360755239218, 30.224184138545485 ], [ 76.724279860688185, 30.22267281398322 ], [ 76.724291527652682, 30.222635506829278 ], [ 76.724508212705487, 30.221836319440737 ], [ 76.724513088535844, 30.22183766206069 ], [ 76.724572030254862, 30.221623610554786 ], [ 76.724574649913819, 30.221614628866909 ], [ 76.724621129847648, 30.221461909084358 ], [ 76.724710023258737, 30.221160404197725 ], [ 76.724827023258726, 30.220750404197723 ], [ 76.724843290191231, 30.220693040535402 ], [ 76.724857034074518, 30.220644266510575 ], [ 76.724908918507296, 30.220482200529521 ], [ 76.724915113601213, 30.220462811817296 ], [ 76.724996113601208, 30.220208811817294 ], [ 76.725049452013096, 30.220038645556841 ], [ 76.725122452013096, 30.219801645556842 ], [ 76.725216022157085, 30.219497545278788 ], [ 76.725630768061464, 30.2178889710984 ], [ 76.725662768061468, 30.217735971098403 ], [ 76.725741864988606, 30.217335139894274 ], [ 76.725759864988603, 30.217238139894274 ], [ 76.725944052895002, 30.216011227323463 ], [ 76.725957052894998, 30.215898227323461 ], [ 76.726043938717154, 30.212784003605019 ], [ 76.726037938717155, 30.212682003605021 ], [ 76.726008092560988, 30.212259487212577 ], [ 76.725992092561, 30.212065487212577 ], [ 76.725803014985857, 30.210555523791381 ], [ 76.725787014985855, 30.210460523791383 ], [ 76.725211125103726, 30.208060247972139 ], [ 76.725152125103719, 30.207872247972137 ], [ 76.725092797918762, 30.207686724921608 ], [ 76.725049797918771, 30.207554724921607 ], [ 76.724757624145013, 30.206982374084848 ], [ 76.724603580435783, 30.206564967825251 ], [ 76.724581580435782, 30.206509967825252 ], [ 76.724340551348646, 30.205936350251662 ], [ 76.724314551348641, 30.205877350251662 ], [ 76.724092984777627, 30.205410676388372 ], [ 76.723878087391654, 30.20477428552292 ], [ 76.723791087391646, 30.204608285522919 ], [ 76.722843335509808, 30.203007097221104 ], [ 76.722760335509804, 30.202882097221103 ], [ 76.72132784146126, 30.201004755981202 ], [ 76.721238841461272, 30.200902755981204 ], [ 76.720776201491773, 30.200392579362514 ], [ 76.720678201491765, 30.200288579362514 ], [ 76.719494624067508, 30.199142482188083 ], [ 76.719476165061749, 30.199126176732999 ], [ 76.719340955196529, 30.198834162772684 ], [ 76.718901042674162, 30.197360588469472 ], [ 76.718165105275716, 30.196294669137743 ], [ 76.717620861139665, 30.195119260188967 ], [ 76.716575098375245, 30.193991729925301 ], [ 76.715701357202093, 30.192726217927465 ], [ 76.714672051955603, 30.191939885564111 ] ] ], [ [ [ 76.723823124032421, 30.367392425015112 ], [ 76.723709082468233, 30.367511563325916 ], [ 76.723565245439445, 30.367592249908505 ], [ 76.721764613265876, 30.369542934763281 ], [ 76.719928923407167, 30.3714606652896 ], [ 76.719857279197129, 30.37160921333783 ], [ 76.719745415578856, 30.371730398924299 ], [ 76.718635707387492, 30.374142036409015 ], [ 76.717482473908774, 30.37653316588522 ], [ 76.717460240087348, 30.376696582752921 ], [ 76.717391299869945, 30.376846404853712 ], [ 76.717081141630388, 30.379482927088514 ], [ 76.716723251059562, 30.382113395101477 ], [ 76.716771641718609, 30.384327303050036 ], [ 76.716771029860467, 30.384663213168764 ], [ 76.716772612660463, 30.384936942267007 ], [ 76.716782612660467, 30.385683942267004 ], [ 76.71678558990628, 30.385849467168462 ], [ 76.716792411451351, 30.386151475573197 ], [ 76.716793036879693, 30.386460437172218 ], [ 76.716793091280891, 30.386481324550324 ], [ 76.7167950912809, 30.387109324550323 ], [ 76.716796357187206, 30.38727303596426 ], [ 76.716803357187203, 30.387843035964259 ], [ 76.716808494393547, 30.388241939505313 ], [ 76.716810001688472, 30.388338712297685 ], [ 76.716818001688466, 30.388776712297684 ], [ 76.716842179337903, 30.389436795958748 ], [ 76.716859179337902, 30.389745795958746 ], [ 76.716929443128691, 30.390627416389353 ], [ 76.716964443128688, 30.390962416389357 ], [ 76.717093502078214, 30.391938536777278 ], [ 76.717134502078224, 30.392194536777275 ], [ 76.717257547837548, 30.392878090432358 ], [ 76.717314547837546, 30.39316309043236 ], [ 76.717666260770969, 30.394608301105066 ], [ 76.717731260770961, 30.394834301105067 ], [ 76.717738652195081, 30.394859929022633 ], [ 76.717797652195088, 30.395063929022633 ], [ 76.71811461484026, 30.396030780795041 ], [ 76.718109560132646, 30.396032525025134 ], [ 76.718207560132655, 30.396316525025135 ], [ 76.718299842471865, 30.396577433389584 ], [ 76.718403842471858, 30.396864433389585 ], [ 76.718433511059573, 30.396945697081438 ], [ 76.718529511059572, 30.39720669708144 ], [ 76.718612790102711, 30.397428591908209 ], [ 76.71872714596168, 30.397727297298445 ], [ 76.71880221382979, 30.397923680203398 ], [ 76.71886976343643, 30.398106385806138 ], [ 76.719005918261558, 30.398475807612318 ], [ 76.719006757323868, 30.398477342218897 ], [ 76.719076710458552, 30.398683131034723 ], [ 76.719079492866854, 30.39868218521956 ], [ 76.719272099021453, 30.399248702536717 ], [ 76.719298770390154, 30.39932087212259 ], [ 76.719347926736219, 30.399459504064893 ], [ 76.719529391842059, 30.399948651966159 ], [ 76.719600111560993, 30.400131126302668 ], [ 76.719675915177248, 30.400328568279882 ], [ 76.719806210875007, 30.400658206103294 ], [ 76.719891210875005, 30.400867206103296 ], [ 76.720351738713831, 30.401904577777739 ], [ 76.720392484168499, 30.401989070983738 ], [ 76.720426796183332, 30.402062822096081 ], [ 76.720511508080605, 30.402242309961363 ], [ 76.720556508080605, 30.402336309961363 ], [ 76.720583559422323, 30.402392566538015 ], [ 76.720654559422329, 30.402539566538017 ], [ 76.720875082422708, 30.402980612538798 ], [ 76.720905082422703, 30.403038612538797 ], [ 76.72122720131263, 30.403633691279833 ], [ 76.72152580569842, 30.404161388866498 ], [ 76.721547335885248, 30.404211873442517 ], [ 76.721659954025441, 30.404478553198494 ], [ 76.721701257380502, 30.404575565732891 ], [ 76.721985014091516, 30.405236669087657 ], [ 76.722303135155698, 30.40597855215524 ], [ 76.722348567447796, 30.406086410497522 ], [ 76.722373515138159, 30.406145344387802 ], [ 76.722450515138149, 30.406326344387804 ], [ 76.722525306713081, 30.40649962559208 ], [ 76.722680306713087, 30.406853625592078 ], [ 76.722680658704888, 30.406853471471372 ], [ 76.722889409487024, 30.407333015042582 ], [ 76.722923786790446, 30.407407559511064 ], [ 76.723031462592303, 30.407648388751984 ], [ 76.723059319677702, 30.407712592701184 ], [ 76.72315248780491, 30.407923609756164 ], [ 76.72322649677929, 30.408088367830068 ], [ 76.723282566050798, 30.408214098923757 ], [ 76.723365816808638, 30.408398003087864 ], [ 76.723400930471769, 30.40847442694292 ], [ 76.723486420200985, 30.408665517852537 ], [ 76.723535420200989, 30.408772517852537 ], [ 76.723828413957762, 30.409381824894123 ], [ 76.723888413957752, 30.409500824894121 ], [ 76.723970063178541, 30.409660772720276 ], [ 76.724047063178546, 30.409809772720276 ], [ 76.724337898442798, 30.410349795266445 ], [ 76.724397898442803, 30.410456795266445 ], [ 76.724469623441109, 30.410583500889285 ], [ 76.724517623441102, 30.410667500889286 ], [ 76.724535444257938, 30.410698615335647 ], [ 76.724566444257945, 30.410752615335646 ], [ 76.724872227359597, 30.411265383063046 ], [ 76.725002227359596, 30.411475383063046 ], [ 76.725142913314372, 30.411698962414388 ], [ 76.725252913314364, 30.41187096241439 ], [ 76.725358593568643, 30.412034257310733 ], [ 76.725432593568655, 30.412147257310732 ], [ 76.725571723866366, 30.412356511389603 ], [ 76.725652723866361, 30.412476511389603 ], [ 76.726024509848344, 30.413006496700039 ], [ 76.726118509848348, 30.41313549670004 ], [ 76.726158877335109, 30.413190674168529 ], [ 76.726241877335099, 30.413303674168528 ], [ 76.726707642420564, 30.413910338892379 ], [ 76.726861642420573, 30.414102338892381 ], [ 76.72718445333868, 30.414493389099366 ], [ 76.727263453338679, 30.414586389099366 ], [ 76.72744651458072, 30.414798522932621 ], [ 76.72758151458072, 30.414952522932619 ], [ 76.727732113980224, 30.415122149614252 ], [ 76.727839113980224, 30.415241149614253 ], [ 76.728005219253589, 30.415423357962268 ], [ 76.728188219253582, 30.415621357962266 ], [ 76.728679077938978, 30.416131922061698 ], [ 76.728771053422648, 30.416223897545358 ], [ 76.728810281418973, 30.416263622098604 ], [ 76.729447893036593, 30.416878296049298 ], [ 76.729532893036591, 30.4169562960493 ], [ 76.729551306810734, 30.416973169877441 ], [ 76.729763306810739, 30.417167169877438 ], [ 76.730148177447631, 30.417509376105993 ], [ 76.73036117744762, 30.417693376105994 ], [ 76.730971084370424, 30.418197269329632 ], [ 76.731109084370431, 30.418306269329634 ], [ 76.731247836315234, 30.418414765103297 ], [ 76.731548836315227, 30.418647765103294 ], [ 76.731579567967884, 30.418671501090291 ], [ 76.731688567967893, 30.418755501090292 ], [ 76.731974796346577, 30.418971570408434 ], [ 76.732120748396326, 30.419079481764371 ], [ 76.732185833081786, 30.419128190303166 ], [ 76.732449025225634, 30.419327911672774 ], [ 76.732513680421462, 30.419376745854549 ], [ 76.732654680421462, 30.419482745854548 ], [ 76.73269778440951, 30.419515049439614 ], [ 76.733064005477289, 30.419788653114381 ], [ 76.733267663970793, 30.419943676743767 ], [ 76.733446408089293, 30.420077990576633 ], [ 76.733628408089302, 30.420212990576633 ], [ 76.733953430257273, 30.420448506501799 ], [ 76.734046199154122, 30.42051416336189 ], [ 76.73406584859309, 30.42052880052114 ], [ 76.734439001674346, 30.420805492261668 ], [ 76.734491000498508, 30.420844810843267 ], [ 76.734536000582693, 30.420882591662608 ], [ 76.73555365834261, 30.421676562778512 ], [ 76.73593550687923, 30.421953040453133 ], [ 76.736310372615208, 30.422225494415876 ], [ 76.737109157316965, 30.422773819356706 ], [ 76.73758015731697, 30.423078819356704 ], [ 76.738719436386461, 30.423758334932199 ], [ 76.738982436386451, 30.423902334932201 ], [ 76.739520977628118, 30.424185477881846 ], [ 76.739863977628119, 30.424358477881846 ], [ 76.741053301853455, 30.424905041002166 ], [ 76.741238301853457, 30.424982041002163 ], [ 76.742558922787794, 30.425472007477058 ], [ 76.742665922787793, 30.425507007477059 ], [ 76.743111719137787, 30.425646452189824 ], [ 76.743255719137792, 30.425689452189825 ], [ 76.743701994082429, 30.425816473469069 ], [ 76.743930994082419, 30.425878473469069 ], [ 76.745029577565376, 30.426139218429832 ], [ 76.745254577565376, 30.426185218429833 ], [ 76.745293822030305, 30.426193196271893 ], [ 76.745481822030314, 30.426231196271893 ], [ 76.746256601700978, 30.426370241015583 ], [ 76.74642860170097, 30.426397241015582 ], [ 76.747452794309851, 30.426528039497772 ], [ 76.747675794309856, 30.426550039497769 ], [ 76.748144266132456, 30.426590085816684 ], [ 76.74837926613246, 30.426607085816684 ], [ 76.749514370397605, 30.426653256244446 ], [ 76.749844370397597, 30.426656256244449 ], [ 76.750008, 30.426657 ], [ 76.750257, 30.426657 ], [ 76.750436991000868, 30.426656100067493 ], [ 76.750596719197787, 30.426654502785521 ], [ 76.751184091588371, 30.426651257634195 ], [ 76.751666737003191, 30.426653758387637 ], [ 76.75176, 30.426654 ], [ 76.752414, 30.426654 ], [ 76.752480914035772, 30.426653875624897 ], [ 76.753254457133266, 30.426651 ], [ 76.753834737972824, 30.426651 ], [ 76.754253900956755, 30.426653061457298 ], [ 76.75449102473155, 30.426658090183356 ], [ 76.754875431179258, 30.426676051046226 ], [ 76.755076783711047, 30.426653733018437 ], [ 76.755383916524821, 30.426740472348136 ], [ 76.755821916524809, 30.426792472348136 ], [ 76.755962111673995, 30.426808559484357 ], [ 76.756296111674004, 30.426845559484356 ], [ 76.7567569580998, 30.426890619073166 ], [ 76.756999196338015, 30.426911162245311 ], [ 76.757495450710337, 30.426955520178034 ], [ 76.757633483829792, 30.426967323084803 ], [ 76.757976483829793, 30.426995323084803 ], [ 76.758452317968505, 30.427027826929578 ], [ 76.758803591712223, 30.42704715043611 ], [ 76.759417042023657, 30.427091707138366 ], [ 76.759458937946874, 30.427094701027084 ], [ 76.759771937946866, 30.427116701027085 ], [ 76.760001221441343, 30.42713134692066 ], [ 76.760204442575514, 30.427143026296189 ], [ 76.761004777417909, 30.427511734437516 ], [ 76.76110959886546, 30.427556813091126 ], [ 76.761195513288584, 30.427594851538004 ], [ 76.761281185913958, 30.427633887855212 ], [ 76.761469458460709, 30.427721748377031 ], [ 76.761651211340308, 30.427807180606145 ], [ 76.761824247439151, 30.427888844507581 ], [ 76.76209575750336, 30.428021800466862 ], [ 76.762171903294032, 30.42805886652544 ], [ 76.762442028433284, 30.428189572237979 ], [ 76.762645791103694, 30.428289407763238 ], [ 76.762803335006538, 30.428366729924143 ], [ 76.762874107310225, 30.428401272890468 ], [ 76.763045107310219, 30.428484272890469 ], [ 76.763208899319736, 30.428562755723316 ], [ 76.763356899319731, 30.428632755723317 ], [ 76.763482530371476, 30.428691584484444 ], [ 76.763633530371479, 30.428761584484445 ], [ 76.76377089351665, 30.428824563615247 ], [ 76.763931893516656, 30.428897563615244 ], [ 76.764298826430888, 30.429059035218661 ], [ 76.764462826430886, 30.429129035218661 ], [ 76.76482295101691, 30.429278158375574 ], [ 76.764959951016905, 30.429333158375574 ], [ 76.765345778051568, 30.429482925196304 ], [ 76.765505778051576, 30.429542925196305 ], [ 76.765963995685709, 30.429707722202892 ], [ 76.766143995685709, 30.429769722202892 ], [ 76.766782782556859, 30.42997650433345 ], [ 76.766937782556852, 30.430023504333448 ], [ 76.767768163821387, 30.430253743762666 ], [ 76.768070163821392, 30.430329743762666 ], [ 76.769063746914142, 30.43055011604562 ], [ 76.769271746914143, 30.430590116045622 ], [ 76.76948841164058, 30.430630408533744 ], [ 76.769655411640571, 30.430660408533743 ], [ 76.769720978147078, 30.430672061788261 ], [ 76.769811978147089, 30.430688061788263 ], [ 76.77042720468998, 30.43078529158883 ], [ 76.770484204689978, 30.430793291588827 ], [ 76.770642482082664, 30.430814790293244 ], [ 76.770741482082656, 30.430827790293243 ], [ 76.770831811626778, 30.430839620303782 ], [ 76.770904215780931, 30.430848952495907 ], [ 76.771109215780939, 30.430874952495909 ], [ 76.771296686888547, 30.430897730709297 ], [ 76.77149334808955, 30.430920579313561 ], [ 76.771713035384721, 30.430947208076613 ], [ 76.772028672020795, 30.430982644268159 ], [ 76.772219936491709, 30.431002410201323 ], [ 76.772637436248374, 30.431052058821034 ], [ 76.773303704666375, 30.431118748510841 ], [ 76.77331823964866, 30.431119930782128 ], [ 76.773405163186553, 30.431128901538706 ], [ 76.773611019673041, 30.431148951899679 ], [ 76.773742019673037, 30.431160951899681 ], [ 76.774130194948754, 30.431192279483611 ], [ 76.77453119494875, 30.431220279483611 ], [ 76.775204656707885, 30.431254642058118 ], [ 76.775576656707884, 30.431266642058116 ], [ 76.776420707958664, 30.431274068177238 ], [ 76.776693707958671, 30.431270068177238 ], [ 76.776871284222665, 30.431266589971287 ], [ 76.777238284222662, 30.431257589971288 ], [ 76.777430039235043, 30.431251864926029 ], [ 76.777552667532007, 30.431247549560741 ], [ 76.777701173634526, 30.431245930965616 ], [ 76.777951512679721, 30.43124146099295 ], [ 76.778039975017535, 30.43123926589772 ], [ 76.778110062516447, 30.431241077427867 ], [ 76.778235479547121, 30.431244011159578 ], [ 76.778398081250558, 30.431251733667921 ], [ 76.778477882446651, 30.431255346240718 ], [ 76.778779882446656, 30.431268346240717 ], [ 76.779218574104121, 30.431280011987496 ], [ 76.779748737190857, 30.431317697247295 ], [ 76.779992916969746, 30.431333386880048 ], [ 76.780523923213181, 30.431363883860246 ], [ 76.781148608408529, 30.431404017266651 ], [ 76.781765220903651, 30.431445724477861 ], [ 76.782085266792379, 30.431471208225439 ], [ 76.782410814605527, 30.43149416213846 ], [ 76.783892814605537, 30.431585162138461 ], [ 76.784404214825003, 30.431609269322795 ], [ 76.784860214825002, 30.431624269322793 ], [ 76.785249765574278, 30.431632863887394 ], [ 76.785961765574271, 30.431640863887395 ], [ 76.786389633187056, 30.431640585768466 ], [ 76.787426633187053, 30.431627585768467 ], [ 76.788103430429445, 30.431606364081535 ], [ 76.78884735105359, 30.431569020642016 ], [ 76.790024270734335, 30.43151165817018 ], [ 76.790085116034035, 30.431508589379455 ], [ 76.790718116034043, 30.431475589379453 ], [ 76.791300407765007, 30.431444679574838 ], [ 76.791998440750987, 30.431295806319351 ], [ 76.792711945065946, 30.43131383097726 ], [ 76.794739493613122, 30.430711207208358 ], [ 76.796808177181177, 30.430270007919017 ], [ 76.79742604163512, 30.429912716983985 ], [ 76.798110194488899, 30.429709374493456 ], [ 76.799852286761066, 30.428509698273118 ], [ 76.801683383670223, 30.427450834435543 ], [ 76.802160598714465, 30.42692009994709 ], [ 76.802748430458948, 30.42651529488786 ], [ 76.804034538326519, 30.424835998883221 ], [ 76.805448808053427, 30.423263119467318 ], [ 76.805738660554496, 30.422610893415005 ], [ 76.806172630122859, 30.422044250926724 ], [ 76.806876860386978, 30.420049716330976 ], [ 76.807735864356914, 30.418116785732956 ], [ 76.807809981532486, 30.417406912547094 ], [ 76.808047608959725, 30.416733899544564 ], [ 76.808101026655436, 30.414619365300833 ], [ 76.808163381006253, 30.414022153098234 ], [ 76.808321741739832, 30.412674783209386 ], [ 76.808317651150958, 30.412654305480753 ], [ 76.808318211144481, 30.41264957919806 ], [ 76.808310657586034, 30.412611579987754 ], [ 76.808320679574834, 30.412515592234993 ], [ 76.808284481849583, 30.412345869297468 ], [ 76.808294346920675, 30.412247221441671 ], [ 76.808174814033706, 30.41169849917102 ], [ 76.808176902870798, 30.411615812759749 ], [ 76.808247246101885, 30.411608793403971 ], [ 76.808243046356566, 30.411566706399856 ], [ 76.808227726855975, 30.41141932682434 ], [ 76.808219726855967, 30.411345326824343 ], [ 76.808186803462206, 30.411223898820275 ], [ 76.808189830977255, 30.411104054934054 ], [ 76.808180030722582, 30.411030141938166 ], [ 76.808135857220847, 30.411035998980783 ], [ 76.807617231052703, 30.409123202842181 ], [ 76.807220225313429, 30.407126011098043 ], [ 76.807152333372315, 30.407004745640378 ], [ 76.807095669413044, 30.406744626628907 ], [ 76.806865449088917, 30.406350481900404 ], [ 76.806746000750366, 30.405909932744205 ], [ 76.805449985824339, 30.403927162472577 ], [ 76.804951769471117, 30.403074199772483 ], [ 76.804469102321519, 30.402212081944697 ], [ 76.80442366742615, 30.402170071790188 ], [ 76.804255264048166, 30.40188175969633 ], [ 76.803914514089399, 30.401578047776546 ], [ 76.803664774792509, 30.401195972197339 ], [ 76.801819481641914, 30.399710736247204 ], [ 76.800051169493429, 30.398134631940888 ], [ 76.799633244880113, 30.397951082268598 ], [ 76.799277660847324, 30.397664880486175 ], [ 76.797063719622784, 30.396822564100727 ], [ 76.794894911815504, 30.395870038335058 ], [ 76.794440721920623, 30.395824618031043 ], [ 76.794014100194573, 30.395662305469958 ], [ 76.791648226888597, 30.395545360445723 ], [ 76.789495315859952, 30.395330063111846 ], [ 76.789494087955788, 30.395300337598535 ], [ 76.788926076106875, 30.395323801082831 ], [ 76.78836206502001, 30.395346283327193 ], [ 76.788254865173542, 30.395350876514861 ], [ 76.787839691088877, 30.395369905327076 ], [ 76.787386536742659, 30.395387401633879 ], [ 76.78723652971027, 30.39539382008072 ], [ 76.786762723823628, 30.39541607319477 ], [ 76.78655956302967, 30.395424772775367 ], [ 76.786530746330413, 30.395425504163672 ], [ 76.786383186127225, 30.395425829903637 ], [ 76.785953145165664, 30.395422148046087 ], [ 76.785560303710497, 30.395416294448246 ], [ 76.785107626714733, 30.395401792210397 ], [ 76.784646517813215, 30.395373289599725 ], [ 76.784469094887157, 30.395363201438279 ], [ 76.783926465280572, 30.395335034405264 ], [ 76.783607262628223, 30.395314460796811 ], [ 76.78326572154063, 30.395289371285639 ], [ 76.783079884657653, 30.39527668614301 ], [ 76.782524884657647, 30.395241686143009 ], [ 76.782448996395118, 30.395237061282849 ], [ 76.781941186490911, 30.395207190112014 ], [ 76.781519342502619, 30.395179067179463 ], [ 76.781204024926609, 30.395141620121752 ], [ 76.78104602492661, 30.395128620121753 ], [ 76.780546819324314, 30.395094524431606 ], [ 76.78036281932431, 30.395084524431606 ], [ 76.780271881686247, 30.395079812837832 ], [ 76.779926881686251, 30.395062812837832 ], [ 76.779573311458321, 30.395048872707449 ], [ 76.779235311458308, 30.395038872707449 ], [ 76.779197658470324, 30.395037798144919 ], [ 76.778906658470333, 30.395029798144918 ], [ 76.778466877793605, 30.395023083654976 ], [ 76.778138877793609, 30.395022083654979 ], [ 76.778084, 30.395022 ], [ 76.777693, 30.395022 ], [ 76.777461507892568, 30.395023488633665 ], [ 76.777150507892571, 30.395027488633662 ], [ 76.777081370996626, 30.395028788852635 ], [ 76.776996324674698, 30.394989054095671 ], [ 76.776758156797911, 30.394875490604754 ], [ 76.776298170244985, 30.394664046515022 ], [ 76.776200942312485, 30.394620999033457 ], [ 76.77609222083349, 30.394570235695838 ], [ 76.775746836293337, 30.394413382852928 ], [ 76.775558836293328, 30.394330382852928 ], [ 76.774888302727334, 30.394050382326185 ], [ 76.774771779322805, 30.394004464204908 ], [ 76.774627571991047, 30.393945245985023 ], [ 76.774554080280879, 30.393915823272742 ], [ 76.774390638978076, 30.393843539649879 ], [ 76.773896777414265, 30.393623099526572 ], [ 76.773792802573126, 30.393577082572008 ], [ 76.773525449578912, 30.393459766482007 ], [ 76.773300850659012, 30.393359004637805 ], [ 76.773215328349252, 30.393320903626616 ], [ 76.772998328349246, 30.393224903626617 ], [ 76.772304403624972, 30.392935091437344 ], [ 76.771915403624973, 30.392782091437343 ], [ 76.77086549644369, 30.392406264842844 ], [ 76.770668841670258, 30.392342670015619 ], [ 76.770531186195583, 30.392298077397058 ], [ 76.770072832651891, 30.392156317788135 ], [ 76.769882832651888, 30.392100317788135 ], [ 76.769066777201274, 30.391880480991738 ], [ 76.768800777201278, 30.391815480991738 ], [ 76.768533666957026, 30.391752363807136 ], [ 76.768349666957022, 30.391710363807135 ], [ 76.767584303379422, 30.391553056534338 ], [ 76.767431303379425, 30.391525056534338 ], [ 76.76696273758283, 30.391445683843912 ], [ 76.766808737582835, 30.391421683843912 ], [ 76.766452453709263, 30.391369803376694 ], [ 76.766260453709265, 30.391343803376696 ], [ 76.7657817427487, 30.391285497002727 ], [ 76.765550742748701, 30.391260497002726 ], [ 76.765049414001084, 30.391213324986349 ], [ 76.764524414001073, 30.391171324986349 ], [ 76.764168782683115, 30.391146416151379 ], [ 76.763787303371046, 30.391123490711955 ], [ 76.763477815831735, 30.391103697904207 ], [ 76.763425795408949, 30.391100446634624 ], [ 76.763098320199475, 30.391080455415441 ], [ 76.762955843107406, 30.39107149459204 ], [ 76.762891922711063, 30.39106758858513 ], [ 76.762663251766568, 30.391054023359608 ], [ 76.762188464918452, 30.391019205657415 ], [ 76.761934837363597, 30.391002405821865 ], [ 76.761502985073321, 30.390976861878631 ], [ 76.760728103498963, 30.390921573950713 ], [ 76.760321498451091, 30.390891330600045 ], [ 76.760155979018322, 30.390873583439859 ], [ 76.759462681682123, 30.390799337266294 ], [ 76.758619218042909, 30.390841879686413 ], [ 76.758011417595284, 30.390664646005263 ], [ 76.757272370291346, 30.390687140684197 ], [ 76.756548030683973, 30.39053871878172 ], [ 76.756160252528872, 30.39052124561286 ], [ 76.756126255571644, 30.390519745920511 ], [ 76.755848255571635, 30.390507745920512 ], [ 76.755443480497533, 30.390494833679366 ], [ 76.755106074649262, 30.390487868879745 ], [ 76.755062610540179, 30.390386452625229 ], [ 76.755053259164981, 30.39036467236787 ], [ 76.754856259164981, 30.389906672367871 ], [ 76.754817367728805, 30.38981692725973 ], [ 76.75465240330864, 30.38943907579457 ], [ 76.754520313479517, 30.389133278792887 ], [ 76.754209332841739, 30.388452570607662 ], [ 76.753992332841747, 30.388002570607664 ], [ 76.753763589006724, 30.387544955396063 ], [ 76.753588589006725, 30.38720695539606 ], [ 76.753476123554634, 30.386993259493572 ], [ 76.753338123554627, 30.386735259493573 ], [ 76.753226259945478, 30.386537069800706 ], [ 76.753188814801277, 30.38643448902927 ], [ 76.753107167445194, 30.386216459410488 ], [ 76.75306293545448, 30.38613805294457 ], [ 76.753053318220424, 30.386086586604687 ], [ 76.753018081007497, 30.385988732337815 ], [ 76.753017687671473, 30.385921963548217 ], [ 76.753017303451998, 30.385869648356753 ], [ 76.753011617044478, 30.385223293369226 ], [ 76.753007789455509, 30.384431939349582 ], [ 76.753001389838346, 30.384031227383979 ], [ 76.75298766897572, 30.383525080006823 ], [ 76.752968627216404, 30.38153262094858 ], [ 76.752870400784403, 30.38094862095344 ], [ 76.752919036749503, 30.380358418471918 ], [ 76.752405259568789, 30.378183148746679 ], [ 76.752034528688952, 30.375978988139174 ], [ 76.751760643877503, 30.375453924775041 ], [ 76.751624516832123, 30.374877579519325 ], [ 76.75046369038408, 30.372967540952676 ], [ 76.749429981278922, 30.370985821786082 ], [ 76.749007247841618, 30.37057109191338 ], [ 76.748699682849434, 30.370065020572724 ], [ 76.747005436914705, 30.368607181047476 ], [ 76.745409936233756, 30.367041887801381 ], [ 76.744879734264842, 30.366778088069672 ], [ 76.744430837930196, 30.366391828432882 ], [ 76.742369017105403, 30.365528891439173 ], [ 76.740367903571808, 30.364533245922502 ], [ 76.73978213293411, 30.36444619888751 ], [ 76.739235846357886, 30.364217560739075 ], [ 76.737008276030878, 30.364033996562267 ], [ 76.734797432579896, 30.363705459495279 ], [ 76.734658919329206, 30.363728756862596 ], [ 76.734560571142964, 30.363714861520894 ], [ 76.734520598488814, 30.363721879618595 ], [ 76.734499837684368, 30.363718963426525 ], [ 76.734406730350756, 30.363735387784565 ], [ 76.73432561041632, 30.363724350942643 ], [ 76.734097275589917, 30.363765649443195 ], [ 76.734095872878328, 30.363730581653396 ], [ 76.733999528126731, 30.363734435443462 ], [ 76.733816501431576, 30.363770976593933 ], [ 76.733623230103234, 30.363755049962187 ], [ 76.733579096149853, 30.363758088523365 ], [ 76.733366724412804, 30.363774521471868 ], [ 76.733320478932043, 30.36377837526193 ], [ 76.733327989957289, 30.363868507564892 ], [ 76.73139620230792, 30.364254187605269 ], [ 76.729553980326017, 30.364587386910586 ], [ 76.729243799770487, 30.364639558022741 ], [ 76.729232264550546, 30.364645575051835 ], [ 76.728783884294856, 30.364726672764913 ], [ 76.728638608559379, 30.364804739250339 ], [ 76.728476877890628, 30.364837028664176 ], [ 76.726161580157594, 30.366135814264364 ], [ 76.723823124032421, 30.367392425015112 ] ] ] ] } }
]
}
